start=new Date('2022-01-19T00:00:00.000Z').valueOf();
sats=[{"FILE":"3276759","NORAD_CAT_ID":"45221","CLASSIFICATION_TYPE":"U","RA_OF_ASC_NODE":"310.4491","LAUNCH_DATE":"2020-02-17","ECCENTRICITY":"0.00018970","OBJECT_ID":"2020-012AV","ELEMENT_SET_NO":"999","BSTAR":"-0.00008790800000","PERIAPSIS":"545.912","TLE_LINE2":"2 45221  53.0561 310.4491 0001897  59.1363 300.9813 15.06396159106691","SITE":"AFETR","GP_ID":"194131205","MEAN_ELEMENT_THEORY":"SGP4","COUNTRY_CODE":"US","SEMIMAJOR_AXIS":"6925.360","TLE_LINE1":"1 45221U 20012AV  22018.53802244 -.00001591  00000-0 -87908-4 0  9994","RCS_SIZE":"LARGE","MEAN_MOTION_DDOT":"0.0000000000000","CENTER_NAME":"EARTH","TIME_SYSTEM":"UTC","REF_FRAME":"TEME","MEAN_ANOMALY":"300.9813","DECAY_DATE":null,"EPHEMERIS_TYPE":"0","MEAN_MOTION":"15.06396159","OBJECT_NAME":"STARLINK-1189","OBJECT_TYPE":"PAYLOAD","ARG_OF_PERICENTER":"59.1363","PERIOD":"95.592","APOAPSIS":"548.539","INCLINATION":"53.0561","MEAN_MOTION_DOT":"-0.00001591","REV_AT_EPOCH":"10669","EPOCH":"2022-01-18T12:54:45.138816"},{"RCS_SIZE":"LARGE","REF_FRAME":"TEME","TIME_SYSTEM":"UTC","MEAN_MOTION_DDOT":"0.0000000000000","CENTER_NAME":"EARTH","TLE_LINE1":"1 45222U 20012AW  22018.54540388 -.00002665  00000-0 -16008-3 0  9999","APOAPSIS":"548.568","ARG_OF_PERICENTER":"61.5596","PERIOD":"95.593","MEAN_MOTION_DOT":"-0.00002665","INCLINATION":"53.0541","REV_AT_EPOCH":"10763","EPOCH":"2022-01-18T13:05:22.895232","MEAN_ANOMALY":"298.5584","DECAY_DATE":null,"OBJECT_NAME":"STARLINK-1191","EPHEMERIS_TYPE":"0","MEAN_MOTION":"15.06388383","OBJECT_TYPE":"PAYLOAD","RA_OF_ASC_NODE":"310.4205","ECCENTRICITY":"0.00019040","LAUNCH_DATE":"2020-02-17","FILE":"3276616","NORAD_CAT_ID":"45222","CLASSIFICATION_TYPE":"U","MEAN_ELEMENT_THEORY":"SGP4","GP_ID":"194124183","SITE":"AFETR","COUNTRY_CODE":"US","SEMIMAJOR_AXIS":"6925.384","OBJECT_ID":"2020-012AW","ELEMENT_SET_NO":"999","BSTAR":"-0.00016008000000","TLE_LINE2":"2 45222  53.0541 310.4205 0001904  61.5596 298.5584 15.06388383107639","PERIAPSIS":"545.931"},{"OBJECT_ID":"2020-012AX","ELEMENT_SET_NO":"999","BSTAR":"-0.00007343500000","PERIAPSIS":"546.169","TLE_LINE2":"2 45223  53.0548 310.6202 0001576  60.4693 299.6453 15.06384686107636","GP_ID":"194122931","SITE":"AFETR","MEAN_ELEMENT_THEORY":"SGP4","COUNTRY_CODE":"US","SEMIMAJOR_AXIS":"6925.395","FILE":"3276616","NORAD_CAT_ID":"45223","CLASSIFICATION_TYPE":"U","RA_OF_ASC_NODE":"310.6202","ECCENTRICITY":"0.00015760","LAUNCH_DATE":"2020-02-17","DECAY_DATE":null,"MEAN_ANOMALY":"299.6453","EPHEMERIS_TYPE":"0","MEAN_MOTION":"15.06384686","OBJECT_NAME":"STARLINK-1212","OBJECT_TYPE":"PAYLOAD","PERIOD":"95.593","ARG_OF_PERICENTER":"60.4693","APOAPSIS":"548.352","INCLINATION":"53.0548","MEAN_MOTION_DOT":"-0.00001375","REV_AT_EPOCH":"10763","EPOCH":"2022-01-18T12:01:40.753632","TLE_LINE1":"1 45223U 20012AX  22018.50116613 -.00001375  00000-0 -73435-4 0  9991","RCS_SIZE":"LARGE","TIME_SYSTEM":"UTC","MEAN_MOTION_DDOT":"0.0000000000000","CENTER_NAME":"EARTH","REF_FRAME":"TEME"},{"RCS_SIZE":"LARGE","MEAN_MOTION_DDOT":"0.0000000000000","CENTER_NAME":"EARTH","TIME_SYSTEM":"UTC","REF_FRAME":"TEME","TLE_LINE1":"1 45224U 20012AY  22018.76704415  .00051768  00000-0  31796-3 0  9995","ARG_OF_PERICENTER":"17.2860","PERIOD":"91.327","APOAPSIS":"341.448","INCLINATION":"53.0483","MEAN_MOTION_DOT":"0.00051768","REV_AT_EPOCH":"10901","EPOCH":"2022-01-18T18:24:32.614560","DECAY_DATE":null,"MEAN_ANOMALY":"342.8250","MEAN_MOTION":"15.76752505","EPHEMERIS_TYPE":"0","OBJECT_NAME":"STARLINK-1214","OBJECT_TYPE":"PAYLOAD","RA_OF_ASC_NODE":"205.0383","ECCENTRICITY":"0.00026750","LAUNCH_DATE":"2020-02-17","FILE":"3276875","NORAD_CAT_ID":"45224","CLASSIFICATION_TYPE":"U","GP_ID":"194153756","SITE":"AFETR","MEAN_ELEMENT_THEORY":"SGP4","COUNTRY_CODE":"US","SEMIMAJOR_AXIS":"6717.786","OBJECT_ID":"2020-012AY","ELEMENT_SET_NO":"999","BSTAR":"0.00031796000000","PERIAPSIS":"337.854","TLE_LINE2":"2 45224  53.0483 205.0383 0002675  17.2860 342.8250 15.76752505109015"},{"NORAD_CAT_ID":"45225","CLASSIFICATION_TYPE":"U","FILE":"3276616","RA_OF_ASC_NODE":"310.5163","LAUNCH_DATE":"2020-02-17","ECCENTRICITY":"0.00016530","BSTAR":"-0.00019408000000","TLE_LINE2":"2 45225  53.0556 310.5163 0001653  64.8485 295.2675 15.06382301107589","PERIAPSIS":"546.123","OBJECT_ID":"2020-012AZ","ELEMENT_SET_NO":"999","SEMIMAJOR_AXIS":"6925.403","MEAN_ELEMENT_THEORY":"SGP4","GP_ID":"194123933","SITE":"AFETR","COUNTRY_CODE":"US","TLE_LINE1":"1 45225U 20012AZ  22018.51961015 -.00003170  00000-0 -19408-3 0  9992","RCS_SIZE":"LARGE","REF_FRAME":"TEME","CENTER_NAME":"EARTH","MEAN_MOTION_DDOT":"0.0000000000000","TIME_SYSTEM":"UTC","OBJECT_NAME":"STARLINK-1215","EPHEMERIS_TYPE":"0","MEAN_MOTION":"15.06382301","OBJECT_TYPE":"PAYLOAD","DECAY_DATE":null,"MEAN_ANOMALY":"295.2675","REV_AT_EPOCH":"10758","EPOCH":"2022-01-18T12:28:14.316960","APOAPSIS":"548.413","PERIOD":"95.593","ARG_OF_PERICENTER":"64.8485","MEAN_MOTION_DOT":"-0.00003170","INCLINATION":"53.0556"},{"TLE_LINE1":"1 45226U 20012BA  22018.79235348  .00000847  00000-0  75788-4 0  9996","RCS_SIZE":"LARGE","REF_FRAME":"TEME","CENTER_NAME":"EARTH","MEAN_MOTION_DDOT":"0.0000000000000","TIME_SYSTEM":"UTC","DECAY_DATE":null,"MEAN_ANOMALY":"294.6575","OBJECT_NAME":"STARLINK-1217","EPHEMERIS_TYPE":"0","MEAN_MOTION":"15.06389978","OBJECT_TYPE":"PAYLOAD","APOAPSIS":"548.337","ARG_OF_PERICENTER":"65.4578","PERIOD":"95.593","MEAN_MOTION_DOT":"0.00000847","INCLINATION":"53.0556","REV_AT_EPOCH":"10758","EPOCH":"2022-01-18T19:00:59.340672","FILE":"3276875","NORAD_CAT_ID":"45226","CLASSIFICATION_TYPE":"U","RA_OF_ASC_NODE":"309.2975","LAUNCH_DATE":"2020-02-17","ECCENTRICITY":"0.00015780","OBJECT_ID":"2020-012BA","ELEMENT_SET_NO":"999","BSTAR":"0.00007578800000","TLE_LINE2":"2 45226  53.0556 309.2975 0001578  65.4578 294.6575 15.06389978107581","PERIAPSIS":"546.151","MEAN_ELEMENT_THEORY":"SGP4","SITE":"AFETR","GP_ID":"194152777","COUNTRY_CODE":"US","SEMIMAJOR_AXIS":"6925.379"},{"LAUNCH_DATE":"2020-02-17","ECCENTRICITY":"0.00015360","RA_OF_ASC_NODE":"308.6066","CLASSIFICATION_TYPE":"U","NORAD_CAT_ID":"45227","FILE":"3276875","SEMIMAJOR_AXIS":"6925.385","COUNTRY_CODE":"US","SITE":"AFETR","GP_ID":"194153522","MEAN_ELEMENT_THEORY":"SGP4","PERIAPSIS":"546.187","TLE_LINE2":"2 45227  53.0538 308.6066 0001536  62.9179 297.1966 15.06387984107610","BSTAR":"0.00051951000000","ELEMENT_SET_NO":"999","OBJECT_ID":"2020-012BB","MEAN_MOTION_DDOT":"0.0000000000000","CENTER_NAME":"EARTH","TIME_SYSTEM":"UTC","REF_FRAME":"TEME","RCS_SIZE":"LARGE","TLE_LINE1":"1 45227U 20012BB  22018.94717529  .00007462  00000-0  51951-3 0  9995","EPOCH":"2022-01-18T22:43:55.945056","REV_AT_EPOCH":"10761","INCLINATION":"53.0538","MEAN_MOTION_DOT":"0.00007462","ARG_OF_PERICENTER":"62.9179","PERIOD":"95.593","APOAPSIS":"548.314","OBJECT_TYPE":"PAYLOAD","MEAN_MOTION":"15.06387984","EPHEMERIS_TYPE":"0","OBJECT_NAME":"STARLINK-1221","MEAN_ANOMALY":"297.1966","DECAY_DATE":null},{"COUNTRY_CODE":"US","SITE":"AFETR","GP_ID":"194153256","MEAN_ELEMENT_THEORY":"SGP4","SEMIMAJOR_AXIS":"6925.421","ELEMENT_SET_NO":"999","OBJECT_ID":"2020-012BC","PERIAPSIS":"546.154","TLE_LINE2":"2 45228  53.0556 309.1795 0001635  60.8184 299.2969 15.06376334107566","BSTAR":"-0.00002603800000","LAUNCH_DATE":"2020-02-17","ECCENTRICITY":"0.00016350","RA_OF_ASC_NODE":"309.1795","FILE":"3276875","CLASSIFICATION_TYPE":"U","NORAD_CAT_ID":"45228","INCLINATION":"53.0556","MEAN_MOTION_DOT":"-0.00000669","ARG_OF_PERICENTER":"60.8184","PERIOD":"95.594","APOAPSIS":"548.418","EPOCH":"2022-01-18T19:38:10.167072","REV_AT_EPOCH":"10756","DECAY_DATE":null,"MEAN_ANOMALY":"299.2969","OBJECT_TYPE":"PAYLOAD","MEAN_MOTION":"15.06376334","EPHEMERIS_TYPE":"0","OBJECT_NAME":"STARLINK-1222","MEAN_MOTION_DDOT":"0.0000000000000","CENTER_NAME":"EARTH","TIME_SYSTEM":"UTC","REF_FRAME":"TEME","RCS_SIZE":"LARGE","TLE_LINE1":"1 45228U 20012BC  22018.81817323 -.00000669  00000-0 -26038-4 0  9998"},{"BSTAR":"0.00030671000000","PERIAPSIS":"546.000","TLE_LINE2":"2 45229  53.0555 309.0513 0001814  61.9563 298.1610 15.06385968107570","OBJECT_ID":"2020-012BD","ELEMENT_SET_NO":"999","SEMIMAJOR_AXIS":"6925.392","GP_ID":"194152026","SITE":"AFETR","MEAN_ELEMENT_THEORY":"SGP4","COUNTRY_CODE":"US","NORAD_CAT_ID":"45229","CLASSIFICATION_TYPE":"U","FILE":"3276875","RA_OF_ASC_NODE":"309.0513","LAUNCH_DATE":"2020-02-17","ECCENTRICITY":"0.00018140","MEAN_MOTION":"15.06385968","EPHEMERIS_TYPE":"0","OBJECT_NAME":"STARLINK-1226","OBJECT_TYPE":"PAYLOAD","MEAN_ANOMALY":"298.1610","DECAY_DATE":null,"REV_AT_EPOCH":"10757","EPOCH":"2022-01-18T20:20:36.895200","PERIOD":"95.593","ARG_OF_PERICENTER":"61.9563","APOAPSIS":"548.513","INCLINATION":"53.0555","MEAN_MOTION_DOT":"0.00004288","TLE_LINE1":"1 45229U 20012BD  22018.84764925  .00004288  00000-0  30671-3 0  9997","RCS_SIZE":"LARGE","CENTER_NAME":"EARTH","MEAN_MOTION_DDOT":"0.0000000000000","TIME_SYSTEM":"UTC","REF_FRAME":"TEME"},{"MEAN_MOTION_DOT":"0.00027816","INCLINATION":"53.0556","APOAPSIS":"549.137","ARG_OF_PERICENTER":"74.7386","PERIOD":"95.603","EPOCH":"2022-01-18T18:39:47.544768","REV_AT_EPOCH":"10768","DECAY_DATE":null,"MEAN_ANOMALY":"285.3827","OBJECT_TYPE":"PAYLOAD","OBJECT_NAME":"STARLINK-1227","EPHEMERIS_TYPE":"0","MEAN_MOTION":"15.06230981","REF_FRAME":"TEME","MEAN_MOTION_DDOT":"0.0000000000000","CENTER_NAME":"EARTH","TIME_SYSTEM":"UTC","RCS_SIZE":"LARGE","TLE_LINE1":"1 45230U 20012BE  22018.77763362  .00027816  00000-0  18875-2 0  9998","COUNTRY_CODE":"US","MEAN_ELEMENT_THEORY":"SGP4","SITE":"AFETR","GP_ID":"194152277","SEMIMAJOR_AXIS":"6925.867","ELEMENT_SET_NO":"999","OBJECT_ID":"2020-012BE","TLE_LINE2":"2 45230  53.0556 309.3634 0002029  74.7386 285.3827 15.06230981107688","PERIAPSIS":"546.326","BSTAR":"0.00188750000000","ECCENTRICITY":"0.00020290","LAUNCH_DATE":"2020-02-17","RA_OF_ASC_NODE":"309.3634","FILE":"3276875","CLASSIFICATION_TYPE":"U","NORAD_CAT_ID":"45230"}];
